NORAD_CAT_ID,OBJECT_NAME,OBJECT_TYPE,EPOCH,MEAN_MOTION,ECCENTRICITY,INCLINATION,RA_OF_ASC_NODE,ARG_OF_PERICENTER,MEAN_ANOMALY,BSTAR,MEAN_MOTION_DOT,MEAN_MOTION_DDOT,TLE_LINE0,TLE_LINE1,TLE_LINE2,SEMIMAJOR_AXIS,PERIOD,APOGEE,PERIGEE,DECAYED
55275.0,STARLINK-5260,PAYLOAD,2023-02-04 00:00:00,15.75908282,0.0003558,70.0003,25.4884,268.6664,158.1369,-0.0058952,-0.00830778,0.0,0 STARLINK-5260,1 55275U 23010G   23035.00001157 -.00830778  00000-0 -58952-2 0  9993,2 55275  70.0003  25.4884 0003558 268.6664 158.1369 15.75908282  2930,6720.185,91.376,344.441,339.659,0.0
55275.0,STARLINK-5260,PAYLOAD,2023-02-04 14:00:01,15.74864661,0.0003521,69.9996,23.8343,260.9592,233.1359,-0.0062064,-0.00835056,0.0,0 STARLINK-5260,1 55275U 23010G   23035.58334491 -.00835056  00000-0 -62064-2 0  9999,2 55275  69.9996  23.8343 0003521 260.9592 233.1359 15.74864661  1309,6723.153,91.436,347.386,342.651,0.0
55275.0,STARLINK-5260,PAYLOAD,2023-02-04 22:00:00,15.74265661,0.0003486,70.0,22.8914,263.1889,319.8017,-0.0063555,-0.0083327,0.0,0 STARLINK-5260,1 55275U 23010G   23035.91667824 -.00833270  00000-0 -63555-2 0  9997,2 55275  70.0000  22.8914 0003486 263.1889 319.8017 15.74265661  1303,6724.859,91.471,349.068,344.379,0.0
55275.0,STARLINK-5260,PAYLOAD,2023-02-05 00:00:02,15.74117178,0.0003634,70.0002,22.6555,264.045,71.1226,-0.0064081,-0.00834695,0.0,0 STARLINK-5260,1 55275U 23010G   23036.00002315 -.00834695  00000-0 -64081-2 0  9993,2 55275  70.0002  22.6555 0003634 264.0450  71.1226 15.74117178  3090,6725.282,91.48,349.59,344.703,0.0
55275.0,STARLINK-5260,PAYLOAD,2023-02-05 14:00:01,15.73085742,0.0003618,69.9973,20.998,271.5001,127.2303,-0.0070014,-0.00868721,0.0,0 STARLINK-5260,1 55275U 23010G   23036.58335648 -.00868721  00000-0 -70014-2 0  9994,2 55275  69.9973  20.9980 0003618 271.5001 127.2303 15.73085742  1305,6728.221,91.54,352.52,347.652,0.0
55275.0,STARLINK-5260,PAYLOAD,2023-02-05 22:00:00,15.72493764,0.0003472,69.9978,20.057,266.4971,218.902,-0.0070404,-0.00853213,0.0,0 STARLINK-5260,1 55275U 23010G   23036.91667824 -.00853213  00000-0 -70404-2 0  9998,2 55275  69.9978  20.0570 0003472 266.4971 218.9020 15.72493764  1303,6729.909,91.574,354.111,349.438,0.0
55275.0,STARLINK-5260,PAYLOAD,2023-02-06 06:00:00,15.71849792,0.0003509,69.998,19.1168,270.0558,301.3933,-0.006745,-0.00800383,0.0,0 STARLINK-5260,1 55275U 23010G   23037.25001157 -.00800383  00000-0 -67450-2 0  9994,2 55275  69.9980  19.1168 0003509 270.0558 301.3933 15.71849792  3296,6731.747,91.612,355.975,351.25,0.0
55275.0,STARLINK-5260,PAYLOAD,2023-02-06 14:00:01,15.71298588,0.0003597,69.9976,18.1772,267.8401,28.9036,-0.0076499,-0.00878533,0.0,0 STARLINK-5260,1 55275U 23010G   23037.58334491 -.00878533  00000-0 -76499-2 0  9995,2 55275  69.9976  18.1772 0003597 267.8401  28.9036 15.71298588  1306,6733.322,91.644,357.609,352.765,0.0
55275.0,STARLINK-5260,PAYLOAD,2023-02-06 22:00:00,15.70679992,0.0003703,69.998,17.2387,265.2935,116.04,-0.007206,-0.0081275,0.0,0 STARLINK-5260,1 55275U 23010G   23037.91667824 -.00812750  00000-0 -72060-2 0  9990,2 55275  69.9980  17.2387 0003703 265.2935 116.0400 15.70679992  1301,6735.089,91.68,359.448,354.46,0.0
55275.0,STARLINK-5260,PAYLOAD,2023-02-07 00:00:00,15.70491216,0.0003621,69.9982,17.0039,267.6845,224.6959,-0.0062997,-0.00713339,0.0,0 STARLINK-5260,1 55275U 23010G   23038.00001157 -.00713339  00000-0 -62997-2 0  9993,2 55275  69.9982  17.0039 0003621 267.6845 224.6959 15.70491216  3410,6735.629,91.691,359.933,355.055,0.0
55275.0,STARLINK-5260,PAYLOAD,2023-02-07 08:00:01,15.69887876,0.0003408,69.9988,16.0663,273.5416,302.5439,0.0005046,0.00060811,0.0,0 STARLINK-5260,1 55275U 23010G   23038.33334491  .00060811  00000-0  50460-3 0  9990,2 55275  69.9988  16.0663 0003408 273.5416 302.5439 15.69887876  3464,6737.355,91.726,361.516,356.924,0.0
55275.0,STARLINK-5260,PAYLOAD,2023-02-07 14:00:01,15.69956641,0.0003317,69.9991,15.3633,269.6786,278.885,-0.00064622,-0.00077308,0.0,0 STARLINK-5260,1 55275U 23010G   23038.58334491 -.00077308  00000-0 -64622-3 0  9993,2 55275  69.9991  15.3633 0003317 269.6786 278.8850 15.69956641  1302,6737.158,91.722,361.258,356.788,0.0
55275.0,STARLINK-5260,PAYLOAD,2023-02-07 22:00:00,15.69938275,0.0003353,70.0004,14.4261,263.1336,8.7641,-5.1665e-05,-6.424e-05,0.0,0 STARLINK-5260,1 55275U 23010G   23038.91667824 -.00006424  00000-0 -51665-4 0  9994,2 55275  70.0004  14.4261 0003353 263.1336   8.7641 15.69938275  1308,6737.211,91.723,361.335,356.817,0.0
55275.0,STARLINK-5260,PAYLOAD,2023-02-08 00:00:00,15.69973309,0.0003369,70.0007,14.1918,265.1146,117.6109,-0.00069878,-0.00083575,0.0,0 STARLINK-5260,1 55275U 23010G   23039.00001157 -.00083575  00000-0 -69878-3 0  9992,2 55275  70.0007  14.1918 0003369 265.1146 117.6109 15.69973309  3561,6737.11,91.721,361.245,356.706,0.0
55275.0,STARLINK-5260,PAYLOAD,2023-02-08 14:00:01,15.69939163,0.0003345,70.0001,12.5516,266.3334,172.2495,-0.00053782,-0.00064427,0.0,0 STARLINK-5260,1 55275U 23010G   23039.58334491 -.00064427  00000-0 -53782-3 0  9997,2 55275  70.0001  12.5516 0003345 266.3334 172.2495 15.69939163  1302,6737.208,91.723,361.327,356.819,0.0
55275.0,STARLINK-5260,PAYLOAD,2023-02-08 16:00:00,15.6988224,0.0003354,70.0003,12.3172,264.3671,285.0657,0.00039634,0.00047632,0.0,0 STARLINK-5260,1 55275U 23010G   23039.66667824  .00047632  00000-0  39634-3 0  9992,2 55275  70.0003  12.3172 0003354 264.3671 285.0657 15.69882240  3670,6737.371,91.727,361.496,356.976,0.0
55275.0,STARLINK-5260,PAYLOAD,2023-02-08 22:00:00,15.6995565,0.000334,70.0005,11.6147,260.1358,261.7591,-0.00014598,-0.00017751,0.0,0 STARLINK-5260,1 55275U 23010G   23039.91667824 -.00017751  00000-0 -14598-3 0  9993,2 55275  70.0005  11.6147 0003340 260.1358 261.7591 15.69955650  1309,6737.161,91.722,361.276,356.776,0.0
55275.0,STARLINK-5260,PAYLOAD,2023-02-09 12:00:00,15.69962374,0.0003332,69.9999,9.9744,268.0506,309.702,-0.00082394,-0.0009829,0.0,0 STARLINK-5260,1 55275U 23010G   23040.50001157 -.00098290  00000-0 -82394-3 0  9997,2 55275  69.9999   9.9744 0003332 268.0506 309.7020 15.69962374  1305,6737.142,91.722,361.251,356.762,0.0
55275.0,STARLINK-5260,PAYLOAD,2023-02-09 22:00:00,15.69939412,0.0003583,70.0005,8.8028,264.5397,147.3668,-7.3531e-05,-9.051e-05,0.0,0 STARLINK-5260,1 55275U 23010G   23040.91667824 -.00009051  00000-0 -73531-4 0  9992,2 55275  70.0005   8.8028 0003583 264.5397 147.3668 15.69939412  3860,6737.207,91.723,361.486,356.658,0.0
55275.0,STARLINK-5260,PAYLOAD,2023-02-09 23:18:25,15.70237879,0.0005277,70.0,8.6492,278.6659,81.3938,0.0012304,0.00152476,0.0,0 STARLINK-5260,1 55275U 23010G   23040.97112316  .00152476  00000-0  12304-2 0  9996,2 55275  70.0000   8.6492 0005277 278.6659  81.3938 15.70237879  3875,6736.354,91.706,361.773,354.664,0.0
55275.0,STARLINK-5260,PAYLOAD,2023-02-10 03:53:46,15.69983743,2.25e-05,70.0001,8.1123,210.3168,149.8015,0.00015074,0.00017992,0.0,0 STARLINK-5260,1 55275U 23010G   23041.16234367  .00017992  00000-0  15074-3 0  9990,2 55275  70.0001   8.1123 0000225 210.3168 149.8015 15.69983743  4220,6737.081,91.721,359.097,358.794,0.0
55275.0,STARLINK-5260,PAYLOAD,2023-02-10 06:57:17,15.69941311,0.000291,70.0001,7.7541,283.9393,76.1479,1.9117e-06,1.8e-07,0.0,0 STARLINK-5260,1 55275U 23010G   23041.28978457  .00000018  00000-0  19117-5 0  9993,2 55275  70.0001   7.7541 0002910 283.9393  76.1479 15.69941311  3925,6737.202,91.723,361.027,357.106,0.0
55275.0,STARLINK-5260,PAYLOAD,2023-02-10 19:11:19,15.69914788,0.0002875,70.0,6.321,260.7533,99.3338,3.18e-05,3.611e-05,0.0,0 STARLINK-5260,1 55275U 23010G   23041.79952755  .00003611  00000-0  31800-4 0  9996,2 55275  70.0000   6.3210 0002875 260.7533  99.3338 15.69914788  4000,6737.278,91.725,361.08,357.206,0.0
55275.0,STARLINK-5260,PAYLOAD,2023-02-11 04:21:51,15.69898532,0.0003404,69.9998,5.2443,279.6805,80.4006,0.00035442,0.00042575,0.0,0 STARLINK-5260,1 55275U 23010G   23042.18185011  .00042575  00000-0  35442-3 0  9990,2 55275  69.9998   5.2443 0003404 279.6805  80.4006 15.69898532  4066,6737.324,91.726,361.483,356.896,0.0
55275.0,STARLINK-5260,PAYLOAD,2023-02-11 08:57:07,15.69924585,0.0003216,70.0,4.7061,270.8221,89.2606,0.00036965,0.0004447,0.0,0 STARLINK-5260,1 55275U 23010G   23042.37299779  .00044470  00000-0  36965-3 0  9995,2 55275  70.0000   4.7061 0003216 270.8221  89.2606 15.69924585  4093,6737.25,91.724,361.281,356.948,0.0
55275.0,STARLINK-5260,PAYLOAD,2023-02-11 22:42:52,15.6993316,0.0004437,70.0005,3.0966,249.9013,110.1705,0.00014573,0.00017356,0.0,0 STARLINK-5260,1 55275U 23010G   23042.94644310  .00017356  00000-0  14573-3 0  9997,2 55275  70.0005   3.0966 0004437 249.9013 110.1705 15.69933160  4189,6737.225,91.724,362.08,356.101,0.0
55275.0,STARLINK-5260,PAYLOAD,2023-02-13 06:49:33,15.70019542,0.0003733,70.0009,359.3339,259.1944,100.8832,3.6659e-05,4.215e-05,0.0,0 STARLINK-5260,1 55275U 23010G   23044.28441892  .00004215  00000-0  36659-4 0  9996,2 55275  70.0009 359.3339 0003733 259.1944 100.8832 15.70019542  4399,6736.978,91.719,361.358,356.328,0.0
55275.0,STARLINK-5260,PAYLOAD,2023-02-13 14:28:25,15.69788372,0.0003497,69.9977,358.4397,255.9257,104.155,-0.00099297,-0.00117302,0.0,0 STARLINK-5260,1 55275U 23010G   23044.60307316 -.00117302  00000-0 -99297-3 0  9994,2 55275  69.9977 358.4397 0003497 255.9257 104.1550 15.69788372  4444,6737.639,91.732,361.861,357.148,0.0
55275.0,STARLINK-5260,PAYLOAD,2023-02-13 19:03:42,15.6988733,0.0004587,69.9998,357.9032,287.1782,72.8911,-0.00026831,-0.00032312,0.0,0 STARLINK-5260,1 55275U 23010G   23044.79423834 -.00032312  00000-0 -26831-3 0  9999,2 55275  69.9998 357.9032 0004587 287.1782  72.8911 15.69887330  4477,6737.356,91.726,362.312,356.131,0.0
55275.0,STARLINK-5260,PAYLOAD,2023-02-14 06:00:02,15.69900551,0.0003496,70.0003,356.6189,276.1244,139.2503,-1.1067e-05,-1.542e-05,0.0,0 STARLINK-5260,1 55275U 23010G   23045.25002315 -.00001542  00000-0 -11067-4 0  9995,2 55275  70.0003 356.6189 0003496 276.1244 139.2503 15.69900551  4549,6737.319,91.726,361.539,356.828,0.0
